CCSDS_OMM_VERS = 2.0
CREATION_DATE  = 
ORIGINATOR     = 

OBJECT_NAME    = SITRO-AIS-60
OBJECT_ID      = 2025-313N
CENTER_NAME    = EARTH
REF_FRAME      = TEME
TIME_SYSTEM    = UTC
MEAN_ELEMENT_THEORY = SGP/SGP4

EPOCH          = 2026-01-25T22:03:05.972832
MEAN_MOTION    = 15.20281968
ECCENTRICITY   = .00167788
INCLINATION    = 97.4090
RA_OF_ASC_NODE = 102.8818
ARG_OF_PERICENTER = 140.1113
MEAN_ANOMALY   = 220.1359

EPHEMERIS_TYPE = 0
CLASSIFICATION_TYPE = U
NORAD_CAT_ID   = 67260
ELEMENT_SET_NO = 999
REV_AT_EPOCH   = 431
BSTAR          = .53523642E-3
MEAN_MOTION_DOT = .11606E-3
MEAN_MOTION_DDOT = 0

CCSDS_OMM_VERS = 2.0
CREATION_DATE  = 
ORIGINATOR     = 

OBJECT_NAME    = 2025-313P
OBJECT_ID      = 2025-313P
CENTER_NAME    = EARTH
REF_FRAME      = TEME
TIME_SYSTEM    = UTC
MEAN_ELEMENT_THEORY = SGP/SGP4

EPOCH          = 2026-01-25T21:54:00.767232
MEAN_MOTION    = 15.20991983
ECCENTRICITY   = .0015999
INCLINATION    = 97.4124
RA_OF_ASC_NODE = 102.9146
ARG_OF_PERICENTER = 138.9658
MEAN_ANOMALY   = 221.2784

EPHEMERIS_TYPE = 0
CLASSIFICATION_TYPE = U
NORAD_CAT_ID   = 67261
ELEMENT_SET_NO = 999
REV_AT_EPOCH   = 431
BSTAR          = .12917088E-2
MEAN_MOTION_DOT = .28751E-3
MEAN_MOTION_DDOT = 0

CCSDS_OMM_VERS = 2.0
CREATION_DATE  = 
ORIGINATOR     = 

OBJECT_NAME    = 2025-313Q
OBJECT_ID      = 2025-313Q
CENTER_NAME    = EARTH
REF_FRAME      = TEME
TIME_SYSTEM    = UTC
MEAN_ELEMENT_THEORY = SGP/SGP4

EPOCH          = 2026-01-25T21:58:42.489120
MEAN_MOTION    = 15.20596297
ECCENTRICITY   = .00162784
INCLINATION    = 97.4092
RA_OF_ASC_NODE = 102.8865
ARG_OF_PERICENTER = 140.6399
MEAN_ANOMALY   = 219.6023

EPHEMERIS_TYPE = 0
CLASSIFICATION_TYPE = U
NORAD_CAT_ID   = 67262
ELEMENT_SET_NO = 999
REV_AT_EPOCH   = 431
BSTAR          = .86822033E-3
MEAN_MOTION_DOT = .19058E-3
MEAN_MOTION_DDOT = 0

CCSDS_OMM_VERS = 2.0
CREATION_DATE  = 
ORIGINATOR     = 

OBJECT_NAME    = DCS-1
OBJECT_ID      = 2025-313R
CENTER_NAME    = EARTH
REF_FRAME      = TEME
TIME_SYSTEM    = UTC
MEAN_ELEMENT_THEORY = SGP/SGP4

EPOCH          = 2026-01-25T21:59:50.352864
MEAN_MOTION    = 15.20496838
ECCENTRICITY   = .00162917
INCLINATION    = 97.4104
RA_OF_ASC_NODE = 102.9018
ARG_OF_PERICENTER = 139.6565
MEAN_ANOMALY   = 220.5883

EPHEMERIS_TYPE = 0
CLASSIFICATION_TYPE = U
NORAD_CAT_ID   = 67263
ELEMENT_SET_NO = 999
REV_AT_EPOCH   = 431
BSTAR          = .73802765E-3
MEAN_MOTION_DOT = .16137E-3
MEAN_MOTION_DDOT = 0

CCSDS_OMM_VERS = 2.0
CREATION_DATE  = 
ORIGINATOR     = 

OBJECT_NAME    = 2025-313S
OBJECT_ID      = 2025-313S
CENTER_NAME    = EARTH
REF_FRAME      = TEME
TIME_SYSTEM    = UTC
MEAN_ELEMENT_THEORY = SGP/SGP4

EPOCH          = 2026-01-25T22:02:38.822496
MEAN_MOTION    = 15.20270169
ECCENTRICITY   = .00164315
INCLINATION    = 97.4174
RA_OF_ASC_NODE = 102.9076
ARG_OF_PERICENTER = 144.5194
MEAN_ANOMALY   = 215.7138

EPHEMERIS_TYPE = 0
CLASSIFICATION_TYPE = U
NORAD_CAT_ID   = 67264
ELEMENT_SET_NO = 999
REV_AT_EPOCH   = 431
BSTAR          = .50685845E-3
MEAN_MOTION_DOT = .10981E-3
MEAN_MOTION_DDOT = 0

CCSDS_OMM_VERS = 2.0
CREATION_DATE  = 
ORIGINATOR     = 

OBJECT_NAME    = SITRO-TD-4
OBJECT_ID      = 2025-313T
CENTER_NAME    = EARTH
REF_FRAME      = TEME
TIME_SYSTEM    = UTC
MEAN_ELEMENT_THEORY = SGP/SGP4

EPOCH          = 2026-01-25T21:59:07.739520
MEAN_MOTION    = 15.20510643
ECCENTRICITY   = .001624
INCLINATION    = 97.4084
RA_OF_ASC_NODE = 102.8944
ARG_OF_PERICENTER = 140.4796
MEAN_ANOMALY   = 219.7627

EPHEMERIS_TYPE = 0
CLASSIFICATION_TYPE = U
NORAD_CAT_ID   = 67265
ELEMENT_SET_NO = 999
REV_AT_EPOCH   = 431
BSTAR          = .72738567E-3
MEAN_MOTION_DOT = .15909E-3
MEAN_MOTION_DDOT = 0

CCSDS_OMM_VERS = 2.0
CREATION_DATE  = 
ORIGINATOR     = 

OBJECT_NAME    = SITRO-AIS-65
OBJECT_ID      = 2025-313U
CENTER_NAME    = EARTH
REF_FRAME      = TEME
TIME_SYSTEM    = UTC
MEAN_ELEMENT_THEORY = SGP/SGP4

EPOCH          = 2026-01-25T21:58:56.517024
MEAN_MOTION    = 15.20518425
ECCENTRICITY   = .0016157
INCLINATION    = 97.4112
RA_OF_ASC_NODE = 102.9041
ARG_OF_PERICENTER = 139.2871
MEAN_ANOMALY   = 220.9575

EPHEMERIS_TYPE = 0
CLASSIFICATION_TYPE = U
NORAD_CAT_ID   = 67266
ELEMENT_SET_NO = 999
REV_AT_EPOCH   = 431
BSTAR          = .6800472E-3
MEAN_MOTION_DOT = .1487E-3
MEAN_MOTION_DDOT = 0

CCSDS_OMM_VERS = 2.0
CREATION_DATE  = 
ORIGINATOR     = 

OBJECT_NAME    = 2025-313V
OBJECT_ID      = 2025-313V
CENTER_NAME    = EARTH
REF_FRAME      = TEME
TIME_SYSTEM    = UTC
MEAN_ELEMENT_THEORY = SGP/SGP4

EPOCH          = 2026-01-25T21:57:28.944576
MEAN_MOTION    = 15.20632658
ECCENTRICITY   = .00153165
INCLINATION    = 97.4094
RA_OF_ASC_NODE = 102.8904
ARG_OF_PERICENTER = 144.6811
MEAN_ANOMALY   = 215.5442

EPHEMERIS_TYPE = 0
CLASSIFICATION_TYPE = U
NORAD_CAT_ID   = 67267
ELEMENT_SET_NO = 999
REV_AT_EPOCH   = 431
BSTAR          = .87293603E-3
MEAN_MOTION_DOT = .19175E-3
MEAN_MOTION_DDOT = 0

CCSDS_OMM_VERS = 2.0
CREATION_DATE  = 
ORIGINATOR     = 

OBJECT_NAME    = ZORKY-2M 7
OBJECT_ID      = 2025-313W
CENTER_NAME    = EARTH
REF_FRAME      = TEME
TIME_SYSTEM    = UTC
MEAN_ELEMENT_THEORY = SGP/SGP4

EPOCH          = 2026-01-25T21:59:55.750272
MEAN_MOTION    = 15.20430500
ECCENTRICITY   = .00163566
INCLINATION    = 97.4094
RA_OF_ASC_NODE = 102.8866
ARG_OF_PERICENTER = 139.9688
MEAN_ANOMALY   = 220.2757

EPHEMERIS_TYPE = 0
CLASSIFICATION_TYPE = U
NORAD_CAT_ID   = 67268
ELEMENT_SET_NO = 999
REV_AT_EPOCH   = 431
BSTAR          = .5565868E-3
MEAN_MOTION_DOT = .12123E-3
MEAN_MOTION_DDOT = 0

CCSDS_OMM_VERS = 2.0
CREATION_DATE  = 
ORIGINATOR     = 

OBJECT_NAME    = 2025-313X
OBJECT_ID      = 2025-313X
CENTER_NAME    = EARTH
REF_FRAME      = TEME
TIME_SYSTEM    = UTC
MEAN_ELEMENT_THEORY = SGP/SGP4

EPOCH          = 2026-01-25T21:55:50.920320
MEAN_MOTION    = 15.20781267
ECCENTRICITY   = .00160029
INCLINATION    = 97.4119
RA_OF_ASC_NODE = 102.9098
ARG_OF_PERICENTER = 138.6401
MEAN_ANOMALY   = 221.6049

EPHEMERIS_TYPE = 0
CLASSIFICATION_TYPE = U
NORAD_CAT_ID   = 67269
ELEMENT_SET_NO = 999
REV_AT_EPOCH   = 431
BSTAR          = .10176821E-2
MEAN_MOTION_DOT = .2248E-3
MEAN_MOTION_DDOT = 0

CCSDS_OMM_VERS = 2.0
CREATION_DATE  = 
ORIGINATOR     = 

OBJECT_NAME    = SITRO-TD-3
OBJECT_ID      = 2025-313Y
CENTER_NAME    = EARTH
REF_FRAME      = TEME
TIME_SYSTEM    = UTC
MEAN_ELEMENT_THEORY = SGP/SGP4

EPOCH          = 2026-01-25T21:59:40.142976
MEAN_MOTION    = 15.20502452
ECCENTRICITY   = .00162608
INCLINATION    = 97.4094
RA_OF_ASC_NODE = 102.8974
ARG_OF_PERICENTER = 140.1497
MEAN_ANOMALY   = 220.0936

EPHEMERIS_TYPE = 0
CLASSIFICATION_TYPE = U
NORAD_CAT_ID   = 67270
ELEMENT_SET_NO = 999
REV_AT_EPOCH   = 431
BSTAR          = .75073994E-3
MEAN_MOTION_DOT = .16419E-3
MEAN_MOTION_DDOT = 0

CCSDS_OMM_VERS = 2.0
CREATION_DATE  = 
ORIGINATOR     = 

OBJECT_NAME    = 2025-313Z
OBJECT_ID      = 2025-313Z
CENTER_NAME    = EARTH
REF_FRAME      = TEME
TIME_SYSTEM    = UTC
MEAN_ELEMENT_THEORY = SGP/SGP4

EPOCH          = 2026-01-25T22:03:05.730048
MEAN_MOTION    = 15.20179197
ECCENTRICITY   = .00164539
INCLINATION    = 97.4090
RA_OF_ASC_NODE = 102.8840
ARG_OF_PERICENTER = 136.3558
MEAN_ANOMALY   = 223.8982

EPHEMERIS_TYPE = 0
CLASSIFICATION_TYPE = U
NORAD_CAT_ID   = 67271
ELEMENT_SET_NO = 999
REV_AT_EPOCH   = 431
BSTAR          = .36507176E-3
MEAN_MOTION_DOT = .7866E-4
MEAN_MOTION_DDOT = 0

