SITRO-AIS-60            
1 67260U 25313N   26025.91881913  .00011606  00000+0  53524-3 0  9995
2 67260  97.4090 102.8818 0016778 140.1113 220.1359 15.20281968  4312
2025-313P               
1 67261U 25313P   26025.91250888  .00028751  00000+0  12917-2 0  9996
2 67261  97.4124 102.9146 0015999 138.9658 221.2784 15.20991983  4318
2025-313Q               
1 67262U 25313Q   26025.91576955  .00019058  00000+0  86822-3 0  9990
2 67262  97.4092 102.8865 0016278 140.6399 219.6023 15.20596297  4319
DCS-1                   
1 67263U 25313R   26025.91655501  .00016137  00000+0  73803-3 0  9996
2 67263  97.4104 102.9018 0016291 139.6565 220.5883 15.20496838  4318
2025-313S               
1 67264U 25313S   26025.91850489  .00010981  00000+0  50686-3 0  9994
2 67264  97.4174 102.9076 0016431 144.5194 215.7138 15.20270169  4315
SITRO-TD-4              
1 67265U 25313T   26025.91606180  .00015909  00000+0  72739-3 0  9990
2 67265  97.4084 102.8944 0016240 140.4796 219.7627 15.20510643  4311
SITRO-AIS-65            
1 67266U 25313U   26025.91593191  .00014870  00000+0  68005-3 0  9995
2 67266  97.4112 102.9041 0016157 139.2871 220.9575 15.20518425  4312
2025-313V               
1 67267U 25313V   26025.91491834  .00019175  00000+0  87294-3 0  9991
2 67267  97.4094 102.8904 0015316 144.6811 215.5442 15.20632658  4317
ZORKY-2M 7              
1 67268U 25313W   26025.91661748  .00012123  00000+0  55659-3 0  9991
2 67268  97.4094 102.8866 0016356 139.9688 220.2757 15.20430500  4313
2025-313X               
1 67269U 25313X   26025.91378380  .00022480  00000+0  10177-2 0  9991
2 67269  97.4119 102.9098 0016002 138.6401 221.6049 15.20781267  4315
SITRO-TD-3              
1 67270U 25313Y   26025.91643684  .00016419  00000+0  75074-3 0  9998
2 67270  97.4094 102.8974 0016260 140.1497 220.0936 15.20502452  4315
2025-313Z               
1 67271U 25313Z   26025.91881632  .00007866  00000+0  36507-3 0  9990
2 67271  97.4090 102.8840 0016453 136.3558 223.8982 15.20179197  4311
